IRIDIUM 26              
1 24903U 97043A   25283.48441931  .00000563  00000+0  18247-3 0  9993
2 24903  86.3936  62.1397 0002279  88.7240 271.4218 14.37244542473300
IRIDIUM 22              
1 24907U 97043E   25283.44017950  .00000531  00000+0  17608-3 0  9998
2 24907  86.3933  65.7988 0002094  87.7575 272.3861 14.36046339473319
DUMMY MASS 1            
1 24925U 97048A   25283.48786017  .00000619  00000+0  65844-4 0  9997
2 24925  86.3297  81.9776 0008958  95.6096 264.6151 14.87090510522269
DUMMY MASS 2            
1 24926U 97048B   25283.46924131  .00000623  00000+0  66657-4 0  9995
2 24926  86.3297  83.6166 0009643 104.8411 255.3883 14.86841701522037
IRIDIUM 29              
1 24944U 97051A   25283.49133133  .00000562  00000+0  18457-3 0  9992
2 24944  86.3899  95.5082 0001894  89.4419 270.6995 14.36568935469821
IRIDIUM 33              
1 24946U 97051C   25283.46103301  .00000424  00000+0  14226-3 0  9992
2 24946  86.3815  94.7911 0009792  67.8664 292.3571 14.34966295469279
IRIDIUM 28              
1 24948U 97051E   25283.46163534  .00000569  00000+0  18372-3 0  9994
2 24948  86.3904  92.9682 0002618  84.5064 275.6433 14.37475299470405
IRIDIUM 36              
1 24967U 97056C   25283.54602682  .00000424  00000+0  13457-3 0  9990
2 24967  86.3939 124.5650 0002219  81.3936 278.7513 14.37698844468796
